INTELSAT 10 (IS-10)     
1 26766U 01019A   26052.29962384 -.00000079  00000+0  00000+0 0  9991
2 26766   8.7971  60.4356 0006157 252.2884 138.7082  0.99041474 44437
INTELSAT 902 (IS-902)   
1 26900U 01039A   26052.52110211 -.00000278  00000+0  00000+0 0  9994
2 26900   5.8253  73.2011 0004509 265.0886 310.6272  1.00271576 89534
INTELSAT 904 (IS-904)   
1 27380U 02007A   26052.38217474 -.00000220  00000+0  00000+0 0  9993
2 27380   6.6293  70.5768 0005446 298.8332 247.9634  1.00272487 50602
DIRECTV 5 (TEMPO 1)     
1 27426U 02023A   26052.58055574 -.00000052  00000+0  00000+0 0  9998
2 27426   4.5809  76.7634 0003476 263.6286 269.9926  1.00271976 86960
INTELSAT 905 (IS-905)   
1 27438U 02027A   26052.57526904  .00000099  00000+0  00000+0 0  9994
2 27438   6.4617  71.1953 0002960 258.6896 251.4986  1.00270887 50202
GALAXY 3C (G-3C)        
1 27445U 02030A   26052.58358909 -.00000147  00000+0  00000+0 0  9990
2 27445   3.4361  79.6152 0000800  48.7882 138.3443  1.00271223 45335
INTELSAT 906 (IS-906)   
1 27513U 02041A   26052.54380889  .00000018  00000+0  00000+0 0  9992
2 27513   5.5089  74.3540 0003605 240.5936  96.4288  1.00273123 85866
GALAXY 13 (HORIZONS-1)  
1 27954U 03044A   26052.53962369  .00000138  00000+0  00000+0 0  9996
2 27954   1.1193  85.4844 0002165 251.6771 218.5258  1.00273282 45410
INTELSAT 10-02          
1 28358U 04022A   26052.38824145 -.00000006  00000+0  00000+0 0  9999
2 28358   0.0170 115.1067 0000846 217.0649 317.9076  1.00267174 79393
DIRECTV 8               
1 28659U 05019A   26052.50749537  .00000007  00000+0  00000+0 0  9995
2 28659   0.0135 106.4362 0003261 240.0574 228.5533  1.00271973 75917
GALAXY 28 (G-28)        
1 28702U 05022A   26052.37614260 -.00000195  00000+0  00000+0 0  9996
2 28702   3.0002  80.4024 0002435 257.2705 281.9280  1.00271924 50816
GALAXY 16 (G-16)        
1 29236U 06023A   26052.58272242 -.00000121  00000+0  00000+0 0  9993
2 29236   0.0259 181.8481 0002678 150.8067 289.5928  1.00271218 71813
DIRECTV 9S              
1 29494U 06043A   26052.58228909 -.00000108  00000+0  00000+0 0  9997
2 29494   2.1207  82.3538 0003041 249.3201 288.2345  1.00271446 50226
GALAXY 17 (G-17)        
1 31307U 07016B   26052.58558243 -.00000201  00000+0  00000+0 0  9995
2 31307   2.6773  81.3931 0003231 243.0851 312.8216  1.00271041 68641
DIRECTV 10              
1 31862U 07032A   26052.57493725 -.00000143  00000+0  00000+0 0  9996
2 31862   0.1021 105.0832 0006224 264.6970 113.7945  0.98337979 44433
INTELSAT 11 (IS-11)     
1 32253U 07044B   26052.58540910 -.00000040  00000+0  00000+0 0  9990
2 32253   3.2625  80.1056 0005953 198.8347 357.4794  0.99047680 67305
HORIZONS-2              
1 32388U 07063B   26052.51642208 -.00000248  00000+0  00000+0 0  9996
2 32388   2.3022  82.1054 0003081 240.7695 300.6627  1.00271138 66650
DIRECTV 11              
1 32729U 08013A   26051.58429932 -.00000120  00000+0  00000+0 0  9993
2 32729   0.0452 297.3705 0000229  51.9437 272.3487  1.00271627 44424
GALAXY 18 (G-18)        
1 32951U 08024A   26052.57804240  .00000000  00000+0  00000+0 0  9997
2 32951   0.0223 127.6712 0002971 211.8345 257.0813  1.00270385 44693
INTELSAT 25 (IS-25)     
1 33153U 08034A   26052.38217474 -.00000219  00000+0  00000+0 0  9992
2 33153   2.4072  81.7752 0004097 237.4647 298.1306  1.00270283 64535
GALAXY 19 (G-19)        
1 33376U 08045A   26052.58315575 -.00000134  00000+0  00000+0 0  9990
2 33376   0.0539 270.8645 0002905  66.4123 287.1393  1.00271213 63741
FM-5                    
1 35493U 09034A   26052.32475227 -.00000195  00000+0  00000+0 0  9991
2 35493   0.0449 278.9035 0000899 307.5265 315.5560  1.00273747 45488
INTELSAT 14 (IS-14)     
1 36097U 09064A   26052.45081509 -.00000268  00000+0  00000+0 0  9996
2 36097   0.0161  90.9458 0002430 246.5725 291.1244  1.00272988 59442
INTELSAT 15 (IS-15)     
1 36106U 09067A   26052.54796890  .00000000  00000+0  00000+0 0  9999
2 36106   0.0180 127.0621 0002350 204.3421 102.4782  1.00270251 40064
DIRECTV 12              
1 36131U 09075A   26052.58202909 -.00000098  00000+0  00000+0 0  9991
2 36131   0.0134 247.5280 0000286 144.7017 226.0674  1.00271763 45397
INTELSAT 16 (IS-16)     
1 36397U 10006A   26052.58731577 -.00000239  00000+0  00000+0 0  9996
2 36397   0.0200 100.5719 0002053 229.8266 316.3248  1.00271655 58490
XM-5                    
1 37185U 10053A   26052.19628146 -.00000017  00000+0  00000+0 0  9992
2 37185   0.0655 275.6199 0003208 251.8074 299.1330  1.00272453 56328
INTELSAT 17 (IS-17)     
1 37238U 10065B   26052.53983600  .00000004  00000+0  00000+0 0  9996
2 37238   0.0145 163.6092 0002724 185.4542  62.7122  1.00272875 52083
INTELSAT 28 (IS-28)     
1 37392U 11016A   26052.38217474 -.00000219  00000+0  00000+0 0  9995
2 37392   1.5051  84.1529 0004391 243.3006 289.7115  1.00271278 52123
INTELSAT 18 (IS-18)     
1 37834U 11056A   26052.56668899  .00000059  00000+0  00000+0 0  9992
2 37834   0.0403 289.6654 0001906  43.0908 202.7234  1.00274169 52652
INTELSAT 22 (IS-22)     
1 38098U 12011A   26052.53636082 -.00000053  00000+0  00000+0 0  9998
2 38098   0.0092 122.4531 0001597 219.4718  74.6978  1.00272407  6025
INTELSAT 19 (IS-19)     
1 38356U 12030A   26052.56400232 -.00000051  00000+0  00000+0 0  9993
2 38356   0.0206 117.1250 0002989 218.3892 185.0006  1.00272008 49297
INTELSAT 20 (IS-20)     
1 38740U 12043A   26052.53983600 -.00000018  00000+0  00000+0 0  9999
2 38740   0.0215 122.6038 0002413  42.2086 249.4486  1.00271372 49582
INTELSAT 21 (IS-21)     
1 38749U 12045A   26052.45114354 -.00000279  00000+0  00000+0 0  9992
2 38749   0.0584 274.0293 0001715  43.1483 298.5752  1.00272990 49364
INTELSAT 23 (IS-23)     
1 38867U 12057A   26052.52058211 -.00000279  00000+0  00000+0 0  9993
2 38867   0.0585 266.6956 0001469  57.7645 321.3527  1.00268442 48794
FM-6                    
1 39360U 13058A   26052.57934240 -.00000011  00000+0  00000+0 0  9998
2 39360   0.0233 118.7259 0002978  62.2771  62.8554  1.00270621 44912
INTELSAT 30 (IS-30)     
1 40271U 14062A   26052.01305965 -.00000145  00000+0  00000+0 0  9990
2 40271   0.0130  80.9580 0001309  30.2480 309.3654  1.00271553  5627
DIRECTV 14              
1 40333U 14078B   26052.58272242 -.00000120  00000+0  00000+0 0  9992
2 40333   0.0197 114.1460 0000363  79.6764  68.2076  1.00270466 40885
DIRECTV 15              
1 40663U 15026A   26052.58202909 -.00000097  00000+0  00000+0 0  9998
2 40663   0.0190  99.8896 0000819  94.1829  64.0520  1.00270042 39309
SKY MEXICO-1            
1 40664U 15026B   26052.51546875 -.00000229  00000+0  00000+0 0  9992
2 40664   0.0142 108.0130 0002064 231.3043 278.9052  1.00272073 39298
INTELSAT 34 (IS-34)     
1 40874U 15039A   26052.37740806 -.00000280  00000+0  00000+0 0  9990
2 40874   0.0284 265.5516 0000281 277.8512  48.2492  1.00270443 38463
INTELSAT 31 (IS-31)     
1 41581U 16035A   26052.29828098 -.00000145  00000+0  00000+0 0  9994
2 41581   0.0411 263.7458 0002092 324.5518 295.2214  1.00273463 35529
INTELSAT 36 (IS-36)     
1 41747U 16053A   26052.53983600 -.00000019  00000+0  00000+0 0  9996
2 41747   0.0186  84.4589 0001268 230.6822  99.1442  1.00273097 34799
INTELSAT 32E (IS-32E)   
1 41945U 17007B   26052.52248879 -.00000263  00000+0  00000+0 0  9998
2 41945   0.0122 106.0221 0000359 174.5300  15.7864  1.00271754 33069
INTELSAT 35E (IS-35E)   
1 42818U 17041A   26052.45289510 -.00000233  00000+0  00000+0 0  9992
2 42818   0.0340 262.4243 0002044  65.1408 312.3340  1.00271163 31651
INTELSAT 37E (IS-37E)   
1 42950U 17059A   26052.38486142 -.00000135  00000+0  00000+0 0  9991
2 42950   0.0011 170.1988 0002317 152.0675 309.5667  1.00271969 30900
AZERSPACE 2 (IS-38)     
1 43632U 18074A   26052.46866852  .00000000  00000+0  00000+0 0  9996
2 43632   0.0212 124.2747 0001475 204.8554  36.0876  1.00270941 27280
HORIZONS-3E             
1 43633U 18074B   26052.56452231 -.00000026  00000+0  00000+0 0  9999
2 43633   0.0405 296.1953 0000638  18.3303 209.1530  1.00270558 27186
AT&T T-16               
1 44333U 19034A   26052.58237575 -.00000110  00000+0  00000+0 0  9992
2 44333   0.0226  97.1463 0001169  71.7646  91.3584  1.00270968 24477
INTELSAT 39 (IS-39)     
1 44476U 19049B   26052.40054817  .00000000  00000+0  00000+0 0  9990
2 44476   0.0236 122.4886 0000647  52.1894 182.7785  1.00270261 23962
GALAXY 30 (G-30)        
1 46114U 20056C   26052.57760905  .00000000  00000+0  00000+0 0  9991
2 46114   0.0224 124.6728 0002021 214.5845 255.1706  1.00270366 20137
GALAXY 33 (G-33)        
1 54026U 22128A   26052.57604905  .00000000  00000+0  00000+0 0  9991
2 54026   0.0194 114.6321 0001931 211.7708 259.4681  1.00271040 12587
GALAXY 34 (G-34)        
1 54027U 22128B   26052.22028060  .00000065  00000+0  00000+0 0  9997
2 54027   0.0195  99.6635 0001552 235.8367 125.9066  1.00270711 12753
GALAXY 31 (G-31)        
1 54243U 22153A   26052.57838906  .00000019  00000+0  00000+0 0  9990
2 54243   0.0094 163.8933 0001475 173.2260 261.5731  1.00271442  5971
GALAXY 32 (G-32)        
1 54244U 22153B   26052.08516664 -.00000168  00000+0  00000+0 0  9997
2 54244   0.0185  82.6317 0002831 261.0107 107.0081  1.00272027 11979
GALAXY 35 (G-35)        
1 54741U 22170A   26052.58393575 -.00000157  00000+0  00000+0 0  9995
2 54741   0.0100 177.7698 0001950 150.7928 300.0369  1.00271052 11737
GALAXY 36 (G-36)        
1 54742U 22170B   26052.58471576 -.00000180  00000+0  00000+0 0  9990
2 54742   0.0198 127.2461 0001623 261.6990 244.0389  1.00271904 11613
GALAXY 37 (G-37)        
1 57493U 23112A   26052.54725149  .00000054  00000+0  00000+0 0  9996
2 57493   0.0129  96.8895 0002026 236.6039 247.9574  1.00271488  9385
